{
  "type": "FeatureCollection",
  "features": [
    {
      "type": "Feature",
      "properties": {
        "norad_id": 33791,
        "name": "COSMOS 2251 DEB",
        "group": "cosmos-2251-debris",
        "lat": -38.164096523628,
        "lon": 13.874393260948594,
        "alt_km": 756.8231928903424,
        "timestamp": "2025-12-18T14:52:08.417238+00:00",
        "meta_object_name": "COSMOS 2251 DEB",
        "meta_object_id": "1993-036AG",
        "meta_epoch": "2025-12-18T05:23:24.745344",
        "meta_mean_motion": 14.43152299,
        "meta_eccentricity": 0.00303372,
        "meta_inclination": 74.1751,
        "meta_ra_of_asc_node": 27.481,
        "meta_arg_of_pericenter": 223.7495,
        "meta_mean_anomaly": 204.9729,
        "meta_ephemeris_type": 0,
        "meta_classification_type": "U",
        "meta_norad_cat_id": 33791,
        "meta_element_set_no": 999,
        "meta_rev_at_epoch": 88131,
        "meta_bstar": 0.00065905767,
        "meta_mean_motion_dot": 2.201e-05,
        "meta_mean_motion_ddot": 0,
        "tle_line1": "1 33791U 93036AG  25352.22459196  .00002201  00000+0  65906-3 0  9992",
        "tle_line2": "2 33791  74.1751  27.4810 0030337 223.7495 204.9729 14.43152299881314"
      },
      "geometry": {
        "type": "Point",
        "coordinates": [
          13.874393260948594,
          -38.164096523628
        ]
      }
    },
    {
      "type": "Feature",
      "properties": {
        "norad_id": 33792,
        "name": "COSMOS 2251 DEB",
        "group": "cosmos-2251-debris",
        "lat": 60.15475743908682,
        "lon": 125.73402838114174,
        "alt_km": 990.989536305844,
        "timestamp": "2025-12-18T14:52:08.417249+00:00",
        "meta_object_name": "COSMOS 2251 DEB",
        "meta_object_id": "1993-036AH",
        "meta_epoch": "2025-12-18T07:29:41.153568",
        "meta_mean_motion": 13.45832375,
        "meta_eccentricity": 0.04273884,
        "meta_inclination": 73.901,
        "meta_ra_of_asc_node": 336.4451,
        "meta_arg_of_pericenter": 40.0683,
        "meta_mean_anomaly": 22.5164,
        "meta_ephemeris_type": 0,
        "meta_classification_type": "U",
        "meta_norad_cat_id": 33792,
        "meta_element_set_no": 999,
        "meta_rev_at_epoch": 82517,
        "meta_bstar": 0.00084045024,
        "meta_mean_motion_dot": 8.51e-06,
        "meta_mean_motion_ddot": 0,
        "tle_line1": "1 33792U 93036AH  25352.31228187  .00000851  00000+0  84045-3 0  9991",
        "tle_line2": "2 33792  73.9010 336.4451 0427388  40.0683  22.5164 13.45832375825179"
      },
      "geometry": {
        "type": "Point",
        "coordinates": [
          125.73402838114174,
          60.15475743908682
        ]
      }
    },
    {
      "type": "Feature",
      "properties": {
        "norad_id": 33793,
        "name": "COSMOS 2251 DEB",
        "group": "cosmos-2251-debris",
        "lat": -54.086746789046614,
        "lon": -17.39709446375865,
        "alt_km": 769.9758809707901,
        "timestamp": "2025-12-18T14:52:08.417259+00:00",
        "meta_object_name": "COSMOS 2251 DEB",
        "meta_object_id": "1993-036AJ",
        "meta_epoch": "2025-12-17T19:48:39.198816",
        "meta_mean_motion": 14.27739747,
        "meta_eccentricity": 0.00786734,
        "meta_inclination": 73.9806,
        "meta_ra_of_asc_node": 140.6742,
        "meta_arg_of_pericenter": 289.7736,
        "meta_mean_anomaly": 188.3925,
        "meta_ephemeris_type": 0,
        "meta_classification_type": "U",
        "meta_norad_cat_id": 33793,
        "meta_element_set_no": 999,
        "meta_rev_at_epoch": 87279,
        "meta_bstar": 0.00058964952,
        "meta_mean_motion_dot": 1.478e-05,
        "meta_mean_motion_ddot": 0,
        "tle_line1": "1 33793U 93036AJ  25351.82545369  .00001478  00000+0  58965-3 0  9999",
        "tle_line2": "2 33793  73.9806 140.6742 0078673 289.7736 188.3925 14.27739747872797"
      },
      "geometry": {
        "type": "Point",
        "coordinates": [
          -17.39709446375865,
          -54.086746789046614
        ]
      }
    },
    {
      "type": "Feature",
      "properties": {
        "norad_id": 33795,
        "name": "COSMOS 2251 DEB",
        "group": "cosmos-2251-debris",
        "lat": 29.694981663129113,
        "lon": 74.0776056894766,
        "alt_km": 556.4369831901768,
        "timestamp": "2025-12-18T14:52:08.417269+00:00",
        "meta_object_name": "COSMOS 2251 DEB",
        "meta_object_id": "1993-036AL",
        "meta_epoch": "2025-12-18T07:01:35.048928",
        "meta_mean_motion": 15.05703304,
        "meta_eccentricity": 0.00308076,
        "meta_inclination": 74.0323,
        "meta_ra_of_asc_node": 65.3497,
        "meta_arg_of_pericenter": 146.7057,
        "meta_mean_anomaly": 274.1862,
        "meta_ephemeris_type": 0,
        "meta_classification_type": "U",
        "meta_norad_cat_id": 33795,
        "meta_element_set_no": 999,
        "meta_rev_at_epoch": 90105,
        "meta_bstar": 0.0010562944,
        "meta_mean_motion_dot": 0.00015432,
        "meta_mean_motion_ddot": 0,
        "tle_line1": "1 33795U 93036AL  25352.29276677  .00015432  00000+0  10563-2 0  9992",
        "tle_line2": "2 33795  74.0323  65.3497 0030807 146.7057 274.1862 15.05703304901053"
      },
      "geometry": {
        "type": "Point",
        "coordinates": [
          74.0776056894766,
          29.694981663129113
        ]
      }
    },
    {
      "type": "Feature",
      "properties": {
        "norad_id": 33797,
        "name": "COSMOS 2251 DEB",
        "group": "cosmos-2251-debris",
        "lat": -70.70065017007428,
        "lon": -30.987529255856114,
        "alt_km": 749.3058284329118,
        "timestamp": "2025-12-18T14:52:08.417279+00:00",
        "meta_object_name": "COSMOS 2251 DEB",
        "meta_object_id": "1993-036AN",
        "meta_epoch": "2025-12-18T05:42:21.843648",
        "meta_mean_motion": 14.57867151,
        "meta_eccentricity": 0.00604971,
        "meta_inclination": 74.0467,
        "meta_ra_of_asc_node": 24.5101,
        "meta_arg_of_pericenter": 110.7464,
        "meta_mean_anomaly": 327.2309,
        "meta_ephemeris_type": 0,
        "meta_classification_type": "U",
        "meta_norad_cat_id": 33797,
        "meta_element_set_no": 999,
        "meta_rev_at_epoch": 89065,
        "meta_bstar": 0.00030293881,
        "meta_mean_motion_dot": 1.393e-05,
        "meta_mean_motion_ddot": 0,
        "tle_line1": "1 33797U 93036AN  25352.23775282  .00001393  00000+0  30294-3 0  9999",
        "tle_line2": "2 33797  74.0467  24.5101 0060497 110.7464 327.2309 14.57867151890650"
      },
      "geometry": {
        "type": "Point",
        "coordinates": [
          -30.987529255856114,
          -70.70065017007428
        ]
      }
    },
    {
      "type": "Feature",
      "properties": {
        "norad_id": 33798,
        "name": "COSMOS 2251 DEB",
        "group": "cosmos-2251-debris",
        "lat": -56.53252330788961,
        "lon": -29.374441036410623,
        "alt_km": 684.3767512556551,
        "timestamp": "2025-12-18T14:52:08.417290+00:00",
        "meta_object_name": "COSMOS 2251 DEB",
        "meta_object_id": "1993-036AP",
        "meta_epoch": "2025-12-18T02:56:56.513184",
        "meta_mean_motion": 14.44621171,
        "meta_eccentricity": 0.00924474,
        "meta_inclination": 74.0288,
        "meta_ra_of_asc_node": 125.8783,
        "meta_arg_of_pericenter": 246.0905,
        "meta_mean_anomaly": 292.2026,
        "meta_ephemeris_type": 0,
        "meta_classification_type": "U",
        "meta_norad_cat_id": 33798,
        "meta_element_set_no": 999,
        "meta_rev_at_epoch": 88671,
        "meta_bstar": 0.00014734663,
        "meta_mean_motion_dot": 5.08e-06,
        "meta_mean_motion_ddot": 0,
        "tle_line1": "1 33798U 93036AP  25352.12287631  .00000508  00000+0  14735-3 0  9993",
        "tle_line2": "2 33798  74.0288 125.8783 0092447 246.0905 292.2026 14.44621171886711"
      },
      "geometry": {
        "type": "Point",
        "coordinates": [
          -29.374441036410623,
          -56.53252330788961
        ]
      }
    },
    {
      "type": "Feature",
      "properties": {
        "norad_id": 33799,
        "name": "COSMOS 2251 DEB",
        "group": "cosmos-2251-debris",
        "lat": 33.73650783577583,
        "lon": -120.81463387701294,
        "alt_km": 611.8685602929963,
        "timestamp": "2025-12-18T14:52:08.417300+00:00",
        "meta_object_name": "COSMOS 2251 DEB",
        "meta_object_id": "1993-036AQ",
        "meta_epoch": "2025-12-18T06:22:35.984064",
        "meta_mean_motion": 14.79682026,
        "meta_eccentricity": 0.00229222,
        "meta_inclination": 74.0324,
        "meta_ra_of_asc_node": 70.9058,
        "meta_arg_of_pericenter": 139.6208,
        "meta_mean_anomaly": 280.8645,
        "meta_ephemeris_type": 0,
        "meta_classification_type": "U",
        "meta_norad_cat_id": 33799,
        "meta_element_set_no": 999,
        "meta_rev_at_epoch": 88893,
        "meta_bstar": 0.00094915032,
        "meta_mean_motion_dot": 7.132e-05,
        "meta_mean_motion_ddot": 0,
        "tle_line1": "1 33799U 93036AQ  25352.26569426  .00007132  00000+0  94915-3 0  9992",
        "tle_line2": "2 33799  74.0324  70.9058 0022922 139.6208 280.8645 14.79682026888932"
      },
      "geometry": {
        "type": "Point",
        "coordinates": [
          -120.81463387701294,
          33.73650783577583
        ]
      }
    }
  ]
}